{
    "links": {
        "self": "http://www.neowsapp.com/rest/v1/neo/3782015?api_key=iIulBulltgU6a56xZRHN4H3l9WmuAYTsLGpBGhQ2"
    },
    "id": "3782015",
    "neo_reference_id": "3782015",
    "name": "(2017 SZ20)",
    "designation": "2017 SZ20",
    "nasa_jpl_url": "http://ssd.jpl.nasa.gov/sbdb.cgi?sstr=3782015",
    "absolute_magnitude_h": 24.5,
    "estimated_diameter": {
        "kilometers": {
            "estimated_diameter_min": 0.0334622374,
            "estimated_diameter_max": 0.0748238376
        },
        "meters": {
            "estimated_diameter_min": 33.4622374455,
            "estimated_diameter_max": 74.8238376074
        },
        "miles": {
            "estimated_diameter_min": 0.0207924639,
            "estimated_diameter_max": 0.0464933628
        },
        "feet": {
            "estimated_diameter_min": 109.7842471007,
            "estimated_diameter_max": 245.4850393757
        }
    },
    "is_potentially_hazardous_asteroid": false,
    "close_approach_data": [
        {
            "close_approach_date": "2012-10-01",
            "close_approach_date_full": "2012-Oct-01 11:29",
            "epoch_date_close_approach": 1349090940000,
            "relative_velocity": {
                "kilometers_per_second": "10.9034910523",
                "kilometers_per_hour": "39252.5677884496",
                "miles_per_hour": "24390.0191349952"
            },
            "miss_distance": {
                "astronomical": "0.0783542352",
                "lunar": "30.4797974928",
                "kilometers": "11721626.691399024",
                "miles": "7283481.0865295712"
            },
            "orbiting_body": "Earth"
        },
        {
            "close_approach_date": "2013-03-01",
            "close_approach_date_full": "2013-Mar-01 01:37",
            "epoch_date_close_approach": 1362101820000,
            "relative_velocity": {
                "kilometers_per_second": "12.2215199751",
                "kilometers_per_hour": "43997.4719102124",
                "miles_per_hour": "27338.3180322095"
            },
            "miss_distance": {
                "astronomical": "0.3154770936",
                "lunar": "122.7205894104",
                "kilometers": "47194701.236350632",
                "miles": "29325427.5101254416"
            },
            "orbiting_body": "Earth"
        },
        {
            "close_approach_date": "2017-10-01",
            "close_approach_date_full": "2017-Oct-01 10:30",
            "epoch_date_close_approach": 1506853800000,
            "relative_velocity": {
                "kilometers_per_second": "10.976392548",
                "kilometers_per_hour": "39515.0131727759",
                "miles_per_hour": "24553.0924906062"
            },
            "miss_distance": {
                "astronomical": "0.0642974975",
                "lunar": "25.0117265275",
                "kilometers": "9618768.672330325",
                "miles": "5976825.703895485"
            },
            "orbiting_body": "Earth"
        },
        {
            "close_approach_date": "2018-03-02",
            "close_approach_date_full": "2018-Mar-02 12:51",
            "epoch_date_close_approach": 1519995060000,
            "relative_velocity": {
                "kilometers_per_second": "12.047003072",
                "kilometers_per_hour": "43369.2110592662",
                "miles_per_hour": "26947.941171798"
            },
            "miss_distance": {
                "astronomical": "0.3026774542",
                "lunar": "117.7415296838",
                "kilometers": "45279902.445342554",
                "miles": "28135626.7131890852"
            },
            "orbiting_body": "Earth"
        },
        {
            "close_approach_date": "2022-10-01",
            "close_approach_date_full": "2022-Oct-01 12:51",
            "epoch_date_close_approach": 1664628660000,
            "relative_velocity": {
                "kilometers_per_second": "11.0252782108",
                "kilometers_per_hour": "39691.0015588562",
                "miles_per_hour": "24662.4448297238"
            },
            "miss_distance": {
                "astronomical": "0.059946723",
                "lunar": "23.319275247",
                "kilometers": "8967902.07428001",
                "miles": "5572395.953523738"
            },
            "orbiting_body": "Earth"
        }
    ],
    "orbital_data": {
        "orbit_id": "3",
        "orbit_determination_date": "2017-12-26 06:23:50",
        "first_observation_date": "2017-09-29",
        "last_observation_date": "2017-10-07",
        "data_arc_in_days": 8,
        "observations_used": 33,
        "orbit_uncertainty": "8",
        "minimum_orbit_intersection": ".0569672",
        "jupiter_tisserand_invariant": "5.360",
        "epoch_osculation": "2458027.5",
        "eccentricity": ".1267894241380623",
        "semi_major_axis": "1.159952093756389",
        "inclination": "20.96951211477575",
        "ascending_node_longitude": "6.075417154366658",
        "orbital_period": "456.3084451766421",
        "perihelion_distance": "1.012882435761277",
        "perihelion_argument": "52.81399309349672",
        "aphelion_distance": "1.307021751751501",
        "perihelion_time": "2458080.365283225917",
        "mean_anomaly": "318.2924616835377",
        "mean_motion": ".7889400334474194",
        "equinox": "J2000",
        "orbit_class": {
            "orbit_class_type": "APO",
            "orbit_class_description": "Near-Earth asteroid orbits which cross the Earth’s orbit similar to that of 1862 Apollo",
            "orbit_class_range": "a (semi-major axis) > 1.0 AU; q (perihelion) < 1.017 AU"
        }
    },
    "is_sentry_object": false
}